{
  "norad_id": 59875,
  "name": "STARLINK-31936",
  "history": [
    {
      "epoch": "2026-03-28T19:50:57.766272",
      "apogee_km": 483.34382957134403,
      "perigee_km": 482.80824328172,
      "latitude_deg": -30.569165715711478,
      "longitude_deg": -113.10248192003928,
      "semi_major_axis_km": 6861.213036426532,
      "eccentricity": 3.903e-05,
      "inclination_deg": 42.9936,
      "raan_deg": 137.5838,
      "arg_perigee_deg": 319.6758,
      "mean_anomaly_deg": 40.4064,
      "mean_motion_rev_day": 15.27571003
    }
  ]
}